SL-16 R/B               
1 22566U 93016B   26064.68066096  .00000284  00000+0  17039-3 0  9995
2 22566  71.0063 223.6011 0011510 319.8581  40.1690 14.15306733701605
COSMOS 2242             
1 22626U 93024A   26064.62416765  .00002493  00000+0  21662-3 0  9998
2 22626  82.5151 270.6064 0015446 323.5049  36.5119 14.96528853779787
SL-16 R/B               
1 22803U 93059B   26064.24202986 -.00000059  00000+0 -54664-5 0  9997
2 22803  70.9922  20.5044 0018748 222.9016 137.0647 14.17232284678903
ARIANE 40 R/B           
1 22830U 93061H   26064.71823323  .00000289  00000+0  12174-3 0  9997
2 22830  98.4923 133.6840 0009620 298.2066  61.8146 14.32858647693537
COSMOS 2278             
1 23087U 94023A   26064.70791325  .00000267  00000+0  16398-3 0  9994
2 23087  71.0546 183.4267 0007763  21.1565 338.9877 14.14377027644240
SL-16 R/B               
1 23088U 94023B   26064.47339707 -.00000153  00000+0 -54485-4 0  9997
2 23088  70.9986  79.7425 0005672 289.7929  70.2581 14.15013187645494
SL-16 R/B               
1 23343U 94074B   26064.67778606  .00000696  00000+0  99908-4 0  9993
2 23343  97.7114  95.6579 0005501 225.8356 249.4636 14.79402865686650
SL-16 R/B               
1 23405U 94077B   26064.24466604 -.00000217  00000+0 -86331-4 0  9997
2 23405  70.9851   1.8393 0003348 218.5508 141.5376 14.15561763615601
ARIANE 40+ R/B          
1 23561U 95021B   26064.72621990  .00000423  00000+0  14889-3 0  9999
2 23561  98.4505 136.2624 0007473 147.1612 323.9586 14.39769270618679
SL-16 R/B               
1 23705U 95058B   26064.67545536  .00000117  00000+0  84110-4 0  9999
2 23705  71.0213 188.6819 0010972 132.8638 227.3408 14.15493131567280
SL-16 R/B               
1 24298U 96051B   26064.70426243  .00000123  00000+0  92990-4 0  9990
2 24298  70.7599 183.6736 0015422 154.0650 206.1246 14.12414504521086
ORBVIEW 2 (SEASTAR)     
1 24883U 97037A   26064.44486965  .00000467  00000+0  17872-3 0  9999
2 24883  98.8558 228.6443 0003156  80.3835 279.7706 14.35491436507865
